*******************************************************************************
 Revised: Nov 24, 2008                Uranus                                799
 
 PHYSICAL DATA (updated 2009-May-26):
  Mass (10^24 kg)       =    86.8103      Density (g/cm^3)       =  1.318
  Equat. radius (1 bar) = 25559+-4 km     Polar radius (km)      = 24973+-20
  Volumetric mean radius= 25362+-12 km    Flattening             =  0.02293

  Rotation period       = 17.24+-0.01 hr  Rot. rate(10^-4 rad/s) =  1.012   
  m = w^2a^3/GM         =  0.02954        Hydrostatic flat., fh  =  0.01987
  Inferred rot. period  = 17.14+-0.9 hr   ks = 3*J2/m            =  0.357
  Mom. of inert. I/MRo^2=  0.225          I/MRo^2 (upper bound)  =  0.232 
  Rocky core mass (Mc/M)=  0.0012         Y factor (He/H ratio)  =  0.262+-.048

  GM (km^3/s^2)         = 5,793,966       GM 1-sigma( km^3/s^2)  = +-23
  Equ. grav, ge (m/s^2) =  8.87           Pol. grav, gp (m/s^2)  =  9.19+-0.02

  Geometric albedo      =  0.51           Visual magnitude V(1,0)= -7.19
  Vis. mag. (opposition)= +5.52           Obliquity to orbit     = 97.86 deg
  Sidereal orbit period = 84.016846 yr    Sidereal orbit period  = 30687.153 d
  Mean daily motion     = 0.01176904 dg/d Mean orbit velocity    =  6.8352 km/s

  Atmos. temp. (1 bar)  =  76+-2 K        Heat flow/mass (x10^7) = 
  Planetary Solar Const =   3.71 W/m^2    Dipole tilt/offset     = 58.6dg/0.3Rp 
  Escape velocity (km/s)=  21.3           Mag.dip.mom(gauss-Rp^3)= 0.23
  Aroche(ice)/Rp        =  2.20           Hill's sphere rad., Rp = 2700
*******************************************************************************
 
 
*******************************************************************************
Ephemeris / WWW_USER Fri Sep 24 09:55:37 2010  Pasadena, USA     / Horizons    
*******************************************************************************
Target body name: Uranus (799)                    {source: URA090}
Center body name: Solar System Barycenter (0)     {source: DE405}
Center-site name: BODY CENTER
*******************************************************************************
Start time      : A.D. 2005-Jan-01 00:00:00.0000 CT 
Stop  time      : A.D. 2015-Jan-01 00:00:00.0000 CT 
Step-size       : 360 minutes
*******************************************************************************
Center geodetic : 0.00000000,0.00000000,0.0000000 {E-lon(deg),Lat(deg),Alt(km)}
Center cylindric: 0.00000000,0.00000000,0.0000000 {E-lon(deg),Dxy(km),Dz(km)}
Center radii    : (undefined)                                                  
Output units    : KM-S                                                         
Output format   : 02
Reference frame : ICRF/J2000.0                                                 
Output type     : GEOMETRIC cartesian states
Coordinate systm: Ecliptic and Mean Equinox of Reference Epoch                 
*******************************************************************************
JDCT ,   , X, Y, Z, VX, VY, VZ,
*******************************************************************************
$$SOE
2453686.500000000, A.D. 2005-Nov-12 00:00:00.0000,  2.812457311180364E+09, -1.052715772178181E+09, -4.034950145866585E+07,  2.337428728625763E+00,  6.060561903971672E+00, -7.768435353174397E-03,
2453686.750000000, A.D. 2005-Nov-12 06:00:00.0000,  2.812507796403462E+09, -1.052584862826738E+09, -4.034966916916329E+07,  2.337128973722564E+00,  6.060674332734772E+00, -7.760341284005268E-03,
2453687.000000000, A.D. 2005-Nov-12 12:00:00.0000,  2.812558275152373E+09, -1.052453951047355E+09, -4.034983670657045E+07,  2.336829266738564E+00,  6.060786713160323E+00, -7.752408476631167E-03,
2453687.250000000, A.D. 2005-Nov-12 18:00:00.0000,  2.812608747428131E+09, -1.052323036841077E+09, -4.035000407437050E+07,  2.336529607674365E+00,  6.060899045248146E+00, -7.744636931062310E-03,
2453687.500000000, A.D. 2005-Nov-13 00:00:00.0000,  2.812659213231771E+09, -1.052192120208948E+09, -4.035017127604693E+07,  2.336229996530566E+00,  6.061011328998048E+00, -7.737026647305356E-03,
2453687.750000000, A.D. 2005-Nov-13 06:00:00.0000,  2.812709672564326E+09, -1.052061201152012E+09, -4.035033831508279E+07,  2.335930433307771E+00,  6.061123564409844E+00, -7.729577625369632E-03,
2453688.000000000, A.D. 2005-Nov-13 12:00:00.0000,  2.812760125426834E+09, -1.051930279671314E+09, -4.035050519496143E+07,  2.335630918006579E+00,  6.061235751483351E+00, -7.722289865262688E-03,
2453688.250000000, A.D. 2005-Nov-13 18:00:00.0000,  2.812810571820329E+09, -1.051799355767896E+09, -4.035067191916603E+07,  2.335331450627591E+00,  6.061347890218379E+00, -7.715163366992517E-03,
2453688.500000000, A.D. 2005-Nov-14 00:00:00.0000,  2.812861011745846E+09, -1.051668429442804E+09, -4.035083849117994E+07,  2.335032031171408E+00,  6.061459980614742E+00, -7.708198130569333E-03,
2453688.750000000, A.D. 2005-Nov-14 06:00:00.0000,  2.812911445204421E+09, -1.051537500697082E+09, -4.035100491448635E+07,  2.334732659638632E+00,  6.061572022672255E+00, -7.701394156000685E-03,
2453689.000000000, A.D. 2005-Nov-14 12:00:00.0000,  2.812961872197087E+09, -1.051406569531773E+09, -4.035117119256860E+07,  2.334433336029863E+00,  6.061684016390732E+00, -7.694751443295011E-03,
2453689.250000000, A.D. 2005-Nov-14 18:00:00.0000,  2.813012292724882E+09, -1.051275635947922E+09, -4.035133732890981E+07,  2.334134060345703E+00,  6.061795961769985E+00, -7.688269992460750E-03,
2453689.500000000, A.D. 2005-Nov-15 00:00:00.0000,  2.813062706788840E+09, -1.051144699946573E+09, -4.035150332699329E+07,  2.333834832586752E+00,  6.061907858809827E+00, -7.681949803504562E-03,
2453689.750000000, A.D. 2005-Nov-15 06:00:00.0000,  2.813113114389995E+09, -1.051013761528769E+09, -4.035166919030243E+07,  2.333535652753611E+00,  6.062019707510076E+00, -7.675790876437105E-03,
2453690.000000000, A.D. 2005-Nov-15 12:00:00.0000,  2.813163515529384E+09, -1.050882820695556E+09, -4.035183492232031E+07,  2.333236520846881E+00,  6.062131507870540E+00, -7.669793211266374E-03,
2453690.250000000, A.D. 2005-Nov-15 18:00:00.0000,  2.813213910208041E+09, -1.050751877447977E+09, -4.035200052653021E+07,  2.332937436867164E+00,  6.062243259891037E+00, -7.663956807999472E-03,
2453690.500000000, A.D. 2005-Nov-16 00:00:00.0000,  2.813264298427001E+09, -1.050620931787077E+09, -4.035216600641543E+07,  2.332638400815060E+00,  6.062354963571379E+00, -7.658281666646172E-03,
2453690.750000000, A.D. 2005-Nov-16 06:00:00.0000,  2.813314680187301E+09, -1.050489983713899E+09, -4.035233136545938E+07,  2.332339412691170E+00,  6.062466618911381E+00, -7.652767787214465E-03,
2453691.000000000, A.D. 2005-Nov-16 12:00:00.0000,  2.813365055489974E+09, -1.050359033229488E+09, -4.035249660714489E+07,  2.332040472496094E+00,  6.062578225910855E+00, -7.647415169712346E-03,
2453691.250000000, A.D. 2005-Nov-16 18:00:00.0000,  2.813415424336058E+09, -1.050228080334888E+09, -4.035266173495567E+07,  2.331741580230435E+00,  6.062689784569616E+00, -7.642223814148252E-03,
2453691.500000000, A.D. 2005-Nov-17 00:00:00.0000,  2.813465786726585E+09, -1.050097125031143E+09, -4.035282675237483E+07,  2.331442735894792E+00,  6.062801294887478E+00, -7.637193720530622E-03,
2453691.750000000, A.D. 2005-Nov-17 06:00:00.0000,  2.813516142662594E+09, -1.049966167319297E+09, -4.035299166288555E+07,  2.331143939489768E+00,  6.062912756864257E+00, -7.632324888867892E-03,
2453692.000000000, A.D. 2005-Nov-17 12:00:00.0000,  2.813566492145117E+09, -1.049835207200394E+09, -4.035315646997106E+07,  2.330845191015962E+00,  6.063024170499763E+00, -7.627617319169389E-03,
2453692.250000000, A.D. 2005-Nov-17 18:00:00.0000,  2.813616835175190E+09, -1.049704244675479E+09, -4.035332117711484E+07,  2.330546490473975E+00,  6.063135535793814E+00, -7.623071011442217E-03,
2453692.500000000, A.D. 2005-Nov-18 00:00:00.0000,  2.813667171753850E+09, -1.049573279745596E+09, -4.035348578779989E+07,  2.330247837864409E+00,  6.063246852746220E+00, -7.618685965694816E-03,
2453692.750000000, A.D. 2005-Nov-18 06:00:00.0000,  2.813717501882132E+09, -1.049442312411789E+09, -4.035365030550963E+07,  2.329949233187865E+00,  6.063358121356798E+00, -7.614462181936510E-03,
2453693.000000000, A.D. 2005-Nov-18 12:00:00.0000,  2.813767825561069E+09, -1.049311342675101E+09, -4.035381473372728E+07,  2.329650676444942E+00,  6.063469341625360E+00, -7.610399660175293E-03,
2453693.250000000, A.D. 2005-Nov-18 18:00:00.0000,  2.813818142791699E+09, -1.049180370536578E+09, -4.035397907593608E+07,  2.329352167636242E+00,  6.063580513551723E+00, -7.606498400419159E-03,
2453693.500000000, A.D. 2005-Nov-19 00:00:00.0000,  2.813868453575056E+09, -1.049049395997264E+09, -4.035414333561921E+07,  2.329053706762366E+00,  6.063691637135697E+00, -7.602758402676102E-03,
2453693.750000000, A.D. 2005-Nov-19 06:00:00.0000,  2.813918757912176E+09, -1.048918419058202E+09, -4.035430751626009E+07,  2.328755293823916E+00,  6.063802712377101E+00, -7.599179666955447E-03,
2453694.000000000, A.D. 2005-Nov-19 12:00:00.0000,  2.813969055804095E+09, -1.048787439720438E+09, -4.035447162134194E+07,  2.328456928821491E+00,  6.063913739275745E+00, -7.595762193264743E-03,
2453694.250000000, A.D. 2005-Nov-19 18:00:00.0000,  2.814019347251847E+09, -1.048656457985014E+09, -4.035463565434790E+07,  2.328158611755692E+00,  6.064024717831445E+00, -7.592505981614206E-03,
2453694.500000000, A.D. 2005-Nov-20 00:00:00.0000,  2.814069632256467E+09, -1.048525473852975E+09, -4.035479961876142E+07,  2.327860342627121E+00,  6.064135648044016E+00, -7.589411032009608E-03,
2453694.750000000, A.D. 2005-Nov-20 06:00:00.0000,  2.814119910818993E+09, -1.048394487325366E+09, -4.035496351806557E+07,  2.327562121436377E+00,  6.064246529913271E+00, -7.586477344460718E-03,
2453695.000000000, A.D. 2005-Nov-20 12:00:00.0000,  2.814170182940459E+09, -1.048263498403231E+09, -4.035512735574383E+07,  2.327263948184063E+00,  6.064357363439026E+00, -7.583704918976419E-03,
